STARLINK-5267           
1 55655U 23021AD  25212.79328782 -.00000263  00000+0 -14227-4 0  9994
2 55655  70.0014   1.5246 0002963 268.6689  91.4130 14.98330038136189
STARLINK-5423           
1 55670U 23021AU  25210.42790082 -.00053527  00000+0 -45626-2 0  9991
2 55670  70.0011   7.3139 0002201 128.6465 231.4891 14.97905979135843
STARLINK-5460           
1 55671U 23021AV  25212.81014858  .00001025  00000+0  93652-4 0  9995
2 55671  70.0008   1.5725 0003567 259.5285 100.5472 14.98334978136193
STARLINK-32506          
1 62167U 24225E   25212.80180134  .00002329  00000+0  20291-3 0  9996
2 62167  70.0034   1.5762 0003092 266.9509  93.1296 14.98335831 36789
STARLINK-32538          
1 62170U 24225H   25212.79344959  .00001348  00000+0  12074-3 0  9995
2 62170  70.0034   1.5446 0003124 272.3581  87.7220 14.98343464 36786
STARLINK-32407          
1 62172U 24225K   25212.66668981 -.00007512  00000+0 -62237-3 0  9994
2 62172  70.0025   1.6810 0003163 268.9084 285.1689 14.98335180  5781
