{
  "original_analysis": {
    "covered_bins": 36,
    "total_bins": 36,
    "coverage_percent": 100.0,
    "distribution": {
      "9": 237,
      "7": 299,
      "11": 222,
      "5": 175,
      "6": 300,
      "34": 325,
      "8": 363,
      "10": 232,
      "13": 201,
      "12": 224,
      "22": 212,
      "24": 224,
      "25": 247,
      "20": 215,
      "21": 242,
      "23": 181,
      "4": 241,
      "18": 188,
      "16": 270,
      "17": 215,
      "19": 179,
      "15": 218,
      "29": 262,
      "27": 245,
      "31": 186,
      "26": 243,
      "28": 166,
      "3": 343,
      "1": 143,
      "33": 312,
      "35": 308,
      "32": 245,
      "30": 297,
      "14": 166,
      "0": 274,
      "2": 295
    },
    "total_satellites": 8695
  },
  "phase2_results": {
    "phase": "Phase 2 - Orbital Diversity Filtering",
    "input_count": 8695,
    "output_count": 500,
    "reduction_ratio": 0.05750431282346176,
    "selected_satellites": [
      {
        "OBJECT_NAME": "STARLINK-5423",
        "OBJECT_ID": "2023-021AU",
        "EPOCH": "2025-07-29T10:16:10.630848",
        "MEAN_MOTION": 14.97905979,
        "ECCENTRICITY": 0.0002201,
        "INCLINATION": 70.0011,
        "RA_OF_ASC_NODE": 7.3139,
        "ARG_OF_PERICENTER": 128.6465,
        "MEAN_ANOMALY": 231.4891,
        "EPHEMERIS_TYPE": 0,
        "CLASSIFICATION_TYPE": "U",
        "NORAD_CAT_ID": 55670,
        "ELEMENT_SET_NO": 999,
        "REV_AT_EPOCH": 13584,
        "BSTAR": -0.0045626,
        "MEAN_MOTION_DOT": -0.00053527,
        "MEAN_MOTION_DDOT": 0,
        "constellation": "starlink",
        "quality_scores": {
          "orbital_stability": 21.703452366666664,
          "coverage_uniformity": 20,
          "handover_frequency": 15.812655555555555,
          "signal_quality": 25,
          "total_score": 82.51610792222222
        }
      },
      {
        "OBJECT_NAME": "STARLINK-32407",
        "OBJECT_ID": "2024-225K",
        "EPOCH": "2025-07-31T16:00:01.999584",
        "MEAN_MOTION": 14.9833518,
        "ECCENTRICITY": 0.0003163,
        "INCLINATION": 70.0025,
        "RA_OF_ASC_NODE": 1.681,
        "ARG_OF_PERICENTER": 268.9084,
        "MEAN_ANOMALY": 285.1689,
        "EPHEMERIS_TYPE": 0,
        "CLASSIFICATION_TYPE": "U",
        "NORAD_CAT_ID": 62172,
        "ELEMENT_SET_NO": 999,
        "REV_AT_EPOCH": 578,
        "BSTAR": -0.00062237,
        "MEAN_MOTION_DOT": -7.512e-05,
        "MEAN_MOTION_DDOT": 0,
        "constellation": "starlink",
        "quality_scores": {
          "orbital_stability": 21.67471566666667,
          "coverage_uniformity": 20,
          "handover_frequency": 15.186777777777777,
          "signal_quality": 25,
          "total_score": 81.86149344444445
        }
      },
      {
        "OBJECT_NAME": "STARLINK-32506",
        "OBJECT_ID": "2024-225E",
        "EPOCH": "2025-07-31T19:14:35.635776",
        "MEAN_MOTION": 14.98335831,
        "ECCENTRICITY": 0.0003092,
        "INCLINATION": 70.0034,
        "RA_OF_ASC_NODE": 1.5762,
        "ARG_OF_PERICENTER": 266.9509,
        "MEAN_ANOMALY": 93.1296,
        "EPHEMERIS_TYPE": 0,
        "CLASSIFICATION_TYPE": "U",
        "NORAD_CAT_ID": 62167,
        "ELEMENT_SET_NO": 999,
        "REV_AT_EPOCH": 3678,
        "BSTAR": 0.00020291,
        "MEAN_MOTION_DOT": 2.329e-05,
        "MEAN_MOTION_DDOT": 0,
        "constellation": "starlink",
        "quality_scores": {
          "orbital_stability": 21.67575896666667,
          "coverage_uniformity": 20,
          "handover_frequency": 15.175133333333333,
          "signal_quality": 25,
          "total_score": 81.8508923
        }
      },
      {
        "OBJECT_NAME": "STARLINK-5267",
        "OBJECT_ID": "2023-021AD",
        "EPOCH": "2025-07-31T19:02:20.067648",
        "MEAN_MOTION": 14.98330038,
        "ECCENTRICITY": 0.0002963,
        "INCLINATION": 70.0014,
        "RA_OF_ASC_NODE": 1.5246,
        "ARG_OF_PERICENTER": 268.6689,
        "MEAN_ANOMALY": 91.413,
        "EPHEMERIS_TYPE": 0,
        "CLASSIFICATION_TYPE": "U",
        "NORAD_CAT_ID": 55655,
        "ELEMENT_SET_NO": 999,
        "REV_AT_EPOCH": 13618,
        "BSTAR": -1.4227e-05,
        "MEAN_MOTION_DOT": -2.63e-06,
        "MEAN_MOTION_DDOT": 0,
        "constellation": "starlink",
        "quality_scores": {
          "orbital_stability": 21.67788706666667,
          "coverage_uniformity": 20,
          "handover_frequency": 15.1694,
          "signal_quality": 25,
          "total_score": 81.84728706666667
        }
      },
      {
        "OBJECT_NAME": "STARLINK-32538",
        "OBJECT_ID": "2024-225H",
        "EPOCH": "2025-07-31T19:02:34.044576",
        "MEAN_MOTION": 14.98343464,
        "ECCENTRICITY": 0.0003124,
        "INCLINATION": 70.0034,
        "RA_OF_ASC_NODE": 1.5446,
        "ARG_OF_PERICENTER": 272.3581,
        "MEAN_ANOMALY": 87.722,
        "EPHEMERIS_TYPE": 0,
        "CLASSIFICATION_TYPE": "U",
        "NORAD_CAT_ID": 62170,
        "ELEMENT_SET_NO": 999,
        "REV_AT_EPOCH": 3678,
        "BSTAR": 0.00012074,
        "MEAN_MOTION_DOT": 1.348e-05,
        "MEAN_MOTION_DDOT": 0,
        "constellation": "starlink",
        "quality_scores": {
          "orbital_stability": 21.675024533333332,
          "coverage_uniformity": 20,
          "handover_frequency": 15.171622222222222,
          "signal_quality": 25,
          "total_score": 81.84664675555555
        }
      },
      {
        "OBJECT_NAME": "STARLINK-5460",
        "OBJECT_ID": "2023-021AV",
        "EPOCH": "2025-07-31T19:26:36.837312",
        "MEAN_MOTION": 14.98334978,
        "ECCENTRICITY": 0.0003567,
        "INCLINATION": 70.0008,
        "RA_OF_ASC_NODE": 1.5725,
        "ARG_OF_PERICENTER": 259.5285,
        "MEAN_ANOMALY": 100.5472,
        "EPHEMERIS_TYPE": 0,
        "CLASSIFICATION_TYPE": "U",
        "NORAD_CAT_ID": 55671,
        "ELEMENT_SET_NO": 999,
        "REV_AT_EPOCH": 13619,
        "BSTAR": 9.3652e-05,
        "MEAN_MOTION_DOT": 1.025e-05,
        "MEAN_MOTION_DDOT": 0,
        "constellation": "starlink",
        "quality_scores": {
          "orbital_stability": 21.668662400000002,
          "coverage_uniformity": 20,
          "handover_frequency": 15.174722222222222,
          "signal_quality": 25,
          "total_score": 81.84338462222223
        }
      }